start=new Date('2022-08-07T00:00:00.000Z').valueOf();
sats=[{"FILE":"3530813","ELEMENT_SET_NO":"999","LAUNCH_DATE":"2021-03-14","PERIOD":"95.593","ECCENTRICITY":"0.00014380","PERIAPSIS":"546.241","REV_AT_EPOCH":"7854","OBJECT_ID":"2021-021AC","NORAD_CAT_ID":"47886","MEAN_ELEMENT_THEORY":"SGP4","REF_FRAME":"TEME","MEAN_MOTION_DOT":"0.00000184","CENTER_NAME":"EARTH","BSTAR":"0.00003126400000","RCS_SIZE":"LARGE","MEAN_MOTION_DDOT":"0.0000000000000","EPHEMERIS_TYPE":"0","SITE":"AFETR","EPOCH":"2022-08-06T19:04:55.054560","ARG_OF_PERICENTER":"76.4212","OBJECT_TYPE":"PAYLOAD","RA_OF_ASC_NODE":"41.4634","TIME_SYSTEM":"UTC","OBJECT_NAME":"STARLINK-2345","COUNTRY_CODE":"US","MEAN_MOTION":"15.06392362","TLE_LINE2":"2 47886  53.0554  41.4634 0001438  76.4212 283.6937 15.06392362 78546","DECAY_DATE":null,"TLE_LINE1":"1 47886U 21021AC  22218.79508165  .00000184  00000-0  31264-4 0  9998","INCLINATION":"53.0554","APOAPSIS":"548.233","GP_ID":"209725558","MEAN_ANOMALY":"283.6937","SEMIMAJOR_AXIS":"6925.372","CLASSIFICATION_TYPE":"U"},{"EPHEMERIS_TYPE":"0","SITE":"AFETR","ARG_OF_PERICENTER":"98.5647","EPOCH":"2022-08-06T19:40:06.795840","FILE":"3530813","ECCENTRICITY":"0.00016110","PERIAPSIS":"546.108","LAUNCH_DATE":"2021-03-14","ELEMENT_SET_NO":"999","PERIOD":"95.592","OBJECT_ID":"2021-021AD","REV_AT_EPOCH":"7847","REF_FRAME":"TEME","MEAN_ELEMENT_THEORY":"SGP4","NORAD_CAT_ID":"47887","BSTAR":"0.00000511650000","CENTER_NAME":"EARTH","MEAN_MOTION_DOT":"-0.00000205","RCS_SIZE":"LARGE","MEAN_MOTION_DDOT":"0.0000000000000","DECAY_DATE":null,"TLE_LINE1":"1 47887U 21021AD  22218.81952310 -.00000205  00000-0  51165-5 0  9995","APOAPSIS":"548.340","INCLINATION":"53.0555","GP_ID":"209724306","MEAN_ANOMALY":"261.5525","CLASSIFICATION_TYPE":"U","SEMIMAJOR_AXIS":"6925.359","TIME_SYSTEM":"UTC","OBJECT_TYPE":"PAYLOAD","RA_OF_ASC_NODE":"46.3307","OBJECT_NAME":"STARLINK-2346","COUNTRY_CODE":"US","MEAN_MOTION":"15.06396582","TLE_LINE2":"2 47887  53.0555  46.3307 0001611  98.5647 261.5525 15.06396582 78477"},{"OBJECT_NAME":"STARLINK-2348","TIME_SYSTEM":"UTC","OBJECT_TYPE":"PAYLOAD","RA_OF_ASC_NODE":"36.5443","MEAN_MOTION":"15.06397980","COUNTRY_CODE":"US","TLE_LINE2":"2 47888  53.0549  36.5443 0001471  74.4873 285.6279 15.06397980 78613","TLE_LINE1":"1 47888U 21021AE  22218.77621561 -.00000640  00000-0 -24047-4 0  9994","DECAY_DATE":null,"GP_ID":"209724556","INCLINATION":"53.0549","APOAPSIS":"548.238","MEAN_ANOMALY":"285.6279","SEMIMAJOR_AXIS":"6925.355","CLASSIFICATION_TYPE":"U","LAUNCH_DATE":"2021-03-14","PERIOD":"95.592","ELEMENT_SET_NO":"999","ECCENTRICITY":"0.00014710","PERIAPSIS":"546.201","FILE":"3530813","REV_AT_EPOCH":"7861","OBJECT_ID":"2021-021AE","NORAD_CAT_ID":"47888","MEAN_ELEMENT_THEORY":"SGP4","REF_FRAME":"TEME","RCS_SIZE":"LARGE","MEAN_MOTION_DDOT":"0.0000000000000","MEAN_MOTION_DOT":"-0.00000640","CENTER_NAME":"EARTH","BSTAR":"-0.00002404700000","SITE":"AFETR","EPHEMERIS_TYPE":"0","EPOCH":"2022-08-06T18:37:45.028704","ARG_OF_PERICENTER":"74.4873"},{"FILE":"3530813","ECCENTRICITY":"0.00012710","PERIAPSIS":"546.295","LAUNCH_DATE":"2021-03-14","ELEMENT_SET_NO":"999","PERIOD":"95.591","OBJECT_ID":"2021-021AF","REV_AT_EPOCH":"7867","REF_FRAME":"TEME","MEAN_ELEMENT_THEORY":"SGP4","NORAD_CAT_ID":"47889","CENTER_NAME":"EARTH","BSTAR":"0.00002149600000","MEAN_MOTION_DOT":"0.00000039","MEAN_MOTION_DDOT":"0.0000000000000","RCS_SIZE":"LARGE","EPHEMERIS_TYPE":"0","SITE":"AFETR","ARG_OF_PERICENTER":"77.5523","EPOCH":"2022-08-06T20:29:12.105312","RA_OF_ASC_NODE":"36.2001","OBJECT_TYPE":"PAYLOAD","TIME_SYSTEM":"UTC","OBJECT_NAME":"STARLINK-2349","COUNTRY_CODE":"US","MEAN_MOTION":"15.06412620","TLE_LINE2":"2 47889  53.0551  36.2001 0001271  77.5523 282.5608 15.06412620 78675","TLE_LINE1":"1 47889U 21021AF  22218.85361233  .00000039  00000-0  21496-4 0  9996","DECAY_DATE":null,"APOAPSIS":"548.055","INCLINATION":"53.0551","GP_ID":"209725808","MEAN_ANOMALY":"282.5608","CLASSIFICATION_TYPE":"U","SEMIMAJOR_AXIS":"6925.310"},{"OBJECT_NAME":"STARLINK-2350","TIME_SYSTEM":"UTC","OBJECT_TYPE":"PAYLOAD","RA_OF_ASC_NODE":"340.9455","TLE_LINE2":"2 47890  53.0538 340.9455 0002616  31.8280 328.2883 15.42168154 78355","MEAN_MOTION":"15.42168154","COUNTRY_CODE":"US","GP_ID":"209656915","APOAPSIS":"441.497","INCLINATION":"53.0538","DECAY_DATE":null,"TLE_LINE1":"1 47890U 21021AG  22217.67710405 -.00004851  00000-0 -10201-3 0  9995","CLASSIFICATION_TYPE":"U","SEMIMAJOR_AXIS":"6817.849","MEAN_ANOMALY":"328.2883","OBJECT_ID":"2021-021AG","REV_AT_EPOCH":"7835","ECCENTRICITY":"0.00026160","PERIAPSIS":"437.930","PERIOD":"93.375","LAUNCH_DATE":"2021-03-14","ELEMENT_SET_NO":"999","FILE":"3530042","MEAN_MOTION_DDOT":"0.0000000000000","RCS_SIZE":"LARGE","BSTAR":"-0.00010201000000","CENTER_NAME":"EARTH","MEAN_MOTION_DOT":"-0.00004851","REF_FRAME":"TEME","MEAN_ELEMENT_THEORY":"SGP4","NORAD_CAT_ID":"47890","SITE":"AFETR","EPHEMERIS_TYPE":"0","ARG_OF_PERICENTER":"31.8280","EPOCH":"2022-08-05T16:15:01.789920"},{"MEAN_MOTION_DDOT":"0.0000000000000","RCS_SIZE":"LARGE","MEAN_MOTION_DOT":"0.00002440","CENTER_NAME":"EARTH","BSTAR":"0.00018265000000","NORAD_CAT_ID":"47891","MEAN_ELEMENT_THEORY":"SGP4","REF_FRAME":"TEME","REV_AT_EPOCH":"7863","OBJECT_ID":"2021-021AH","PERIOD":"95.592","LAUNCH_DATE":"2021-03-14","ELEMENT_SET_NO":"999","PERIAPSIS":"546.266","ECCENTRICITY":"0.00013590","FILE":"3530813","EPOCH":"2022-08-06T19:02:57.308640","ARG_OF_PERICENTER":"81.2716","SITE":"AFETR","EPHEMERIS_TYPE":"0","TLE_LINE2":"2 47891  53.0556  46.4665 0001359  81.2716 278.8427 15.06401928 78637","MEAN_MOTION":"15.06401928","COUNTRY_CODE":"US","OBJECT_NAME":"STARLINK-2351","OBJECT_TYPE":"PAYLOAD","RA_OF_ASC_NODE":"46.4665","TIME_SYSTEM":"UTC","SEMIMAJOR_AXIS":"6925.343","CLASSIFICATION_TYPE":"U","MEAN_ANOMALY":"278.8427","GP_ID":"209724807","INCLINATION":"53.0556","APOAPSIS":"548.149","DECAY_DATE":null,"TLE_LINE1":"1 47891U 21021AH  22218.79371885  .00002440  00000-0  18265-3 0  9993"},{"APOAPSIS":"516.529","INCLINATION":"53.0560","GP_ID":"209725057","TLE_LINE1":"1 47892U 21021AJ  22218.84180630  .00004462  00000-0  23922-3 0  9998","DECAY_DATE":null,"CLASSIFICATION_TYPE":"U","SEMIMAJOR_AXIS":"6893.336","MEAN_ANOMALY":"316.3383","OBJECT_TYPE":"PAYLOAD","RA_OF_ASC_NODE":"34.0104","TIME_SYSTEM":"UTC","OBJECT_NAME":"STARLINK-2352","TLE_LINE2":"2 47892  53.0560  34.0104 0001926  43.7763 316.3383 15.16905596 78651","COUNTRY_CODE":"US","MEAN_MOTION":"15.16905596","EPHEMERIS_TYPE":"0","SITE":"AFETR","ARG_OF_PERICENTER":"43.7763","EPOCH":"2022-08-06T20:12:12.064320","OBJECT_ID":"2021-021AJ","REV_AT_EPOCH":"7865","FILE":"3530813","ECCENTRICITY":"0.00019260","PERIAPSIS":"513.874","PERIOD":"94.930","LAUNCH_DATE":"2021-03-14","ELEMENT_SET_NO":"999","CENTER_NAME":"EARTH","BSTAR":"0.00023922000000","MEAN_MOTION_DOT":"0.00004462","RCS_SIZE":"LARGE","MEAN_MOTION_DDOT":"0.0000000000000","MEAN_ELEMENT_THEORY":"SGP4","REF_FRAME":"TEME","NORAD_CAT_ID":"47892"},{"RA_OF_ASC_NODE":"36.6675","OBJECT_TYPE":"PAYLOAD","TIME_SYSTEM":"UTC","OBJECT_NAME":"STARLINK-2354","COUNTRY_CODE":"US","MEAN_MOTION":"15.06406183","TLE_LINE2":"2 47894  53.0565  36.6675 0001524  81.6501 278.4661 15.06406183 78557","DECAY_DATE":null,"TLE_LINE1":"1 47894U 21021AL  22218.75040763  .00000603  00000-0  59398-4 0  9992","INCLINATION":"53.0565","APOAPSIS":"548.250","GP_ID":"209725308","MEAN_ANOMALY":"278.4661","SEMIMAJOR_AXIS":"6925.330","CLASSIFICATION_TYPE":"U","FILE":"3530813","LAUNCH_DATE":"2021-03-14","PERIOD":"95.592","ELEMENT_SET_NO":"999","ECCENTRICITY":"0.00015240","PERIAPSIS":"546.139","REV_AT_EPOCH":"7855","OBJECT_ID":"2021-021AL","NORAD_CAT_ID":"47894","MEAN_ELEMENT_THEORY":"SGP4","REF_FRAME":"TEME","MEAN_MOTION_DOT":"0.00000603","BSTAR":"0.00005939800000","CENTER_NAME":"EARTH","RCS_SIZE":"LARGE","MEAN_MOTION_DDOT":"0.0000000000000","EPHEMERIS_TYPE":"0","SITE":"AFETR","EPOCH":"2022-08-06T18:00:35.219232","ARG_OF_PERICENTER":"81.6501"},{"SITE":"AFETR","EPHEMERIS_TYPE":"0","ARG_OF_PERICENTER":"94.2126","EPOCH":"2022-08-06T18:16:31.180800","PERIAPSIS":"546.138","ECCENTRICITY":"0.00015610","ELEMENT_SET_NO":"999","LAUNCH_DATE":"2021-03-14","PERIOD":"95.592","FILE":"3530813","OBJECT_ID":"2021-021AM","REV_AT_EPOCH":"7858","REF_FRAME":"TEME","MEAN_ELEMENT_THEORY":"SGP4","NORAD_CAT_ID":"47895","MEAN_MOTION_DDOT":"0.0000000000000","RCS_SIZE":"LARGE","BSTAR":"0.00014994000000","CENTER_NAME":"EARTH","MEAN_MOTION_DOT":"0.00001952","DECAY_DATE":null,"TLE_LINE1":"1 47895U 21021AM  22218.76147200  .00001952  00000-0  14994-3 0  9998","GP_ID":"209725559","APOAPSIS":"548.300","INCLINATION":"53.0534","MEAN_ANOMALY":"265.9042","CLASSIFICATION_TYPE":"U","SEMIMAJOR_AXIS":"6925.354","OBJECT_NAME":"STARLINK-2355","RA_OF_ASC_NODE":"36.6072","OBJECT_TYPE":"PAYLOAD","TIME_SYSTEM":"UTC","MEAN_MOTION":"15.06398272","COUNTRY_CODE":"US","TLE_LINE2":"2 47895  53.0534  36.6072 0001561  94.2126 265.9042 15.06398272 78585"},{"MEAN_ANOMALY":"281.7891","SEMIMAJOR_AXIS":"6925.359","CLASSIFICATION_TYPE":"U","DECAY_DATE":null,"TLE_LINE1":"1 47896U 21021AN  22218.82090767 -.00000849  00000-0 -38111-4 0  9995","GP_ID":"209724307","INCLINATION":"53.0546","APOAPSIS":"548.219","MEAN_MOTION":"15.06396489","COUNTRY_CODE":"US","TLE_LINE2":"2 47896  53.0546  51.3440 0001436  78.3259 281.7891 15.06396489 78354","OBJECT_NAME":"STARLINK-2356","RA_OF_ASC_NODE":"51.3440","OBJECT_TYPE":"PAYLOAD","TIME_SYSTEM":"UTC","EPOCH":"2022-08-06T19:42:06.422688","ARG_OF_PERICENTER":"78.3259","SITE":"AFETR","EPHEMERIS_TYPE":"0","NORAD_CAT_ID":"47896","REF_FRAME":"TEME","MEAN_ELEMENT_THEORY":"SGP4","RCS_SIZE":"LARGE","MEAN_MOTION_DDOT":"0.0000000000000","MEAN_MOTION_DOT":"-0.00000849","BSTAR":"-0.00003811100000","CENTER_NAME":"EARTH","LAUNCH_DATE":"2021-03-14","PERIOD":"95.592","ELEMENT_SET_NO":"999","PERIAPSIS":"546.230","ECCENTRICITY":"0.00014360","FILE":"3530813","REV_AT_EPOCH":"7835","OBJECT_ID":"2021-021AN"}];
